OBJECT_NAME,OBJECT_ID,EPOCH,MEAN_MOTION,ECCENTRICITY,INCLINATION,RA_OF_ASC_NODE,ARG_OF_PERICENTER,MEAN_ANOMALY,EPHEMERIS_TYPE,CLASSIFICATION_TYPE,NORAD_CAT_ID,ELEMENT_SET_NO,REV_AT_EPOCH,BSTAR,MEAN_MOTION_DOT,MEAN_MOTION_DDOT
GPS BIIR-5  (PRN 22),2000-040A,2026-06-05T06:32:01.781376,2.00557642,.0121187,54.8529,215.6358,302.4134,18.4278,0,U,26407,999,18970,0,.35E-6,0
GPS BIIR-8  (PRN 16),2003-005A,2026-06-05T04:10:03.912096,2.00561259,.01479334,54.8839,215.4464,53.0561,332.4546,0,U,27663,999,17107,0,.35E-6,0
GPS BIIR-11 (PRN 19),2004-009A,2026-06-04T09:39:01.046880,2.00555241,.01155794,54.8408,276.2039,172.5421,169.2945,0,U,28190,999,16268,0,-.32E-6,0
GPS BIIR-13 (PRN 02),2004-045A,2026-06-02T18:56:54.369024,2.00555416,.01698152,55.1451,325.4759,316.0475,6.4312,0,U,28474,999,15813,0,-.77E-6,0
GPS BIIRM-1 (PRN 17),2005-038A,2026-06-04T09:33:00.010656,2.00566655,.01278016,54.8889,273.6938,296.0673,70.8843,0,U,28874,999,15158,0,-.3E-6,0
INMARSAT 4-F2 (SOUTHPAN/PRN 122),2005-044A,2026-06-04T14:14:36.680640,1.00271203,.00033115,5.0782,43.7153,32.9925,173.4703,0,U,28899,999,7539,0,-.25E-5,0
GPS BIIRM-2 (PRN 31),2006-042A,2026-06-05T06:35:49.651008,2.00570621,.01063286,54.7093,151.8119,54.1303,124.3216,0,U,29486,999,14415,0,.8E-6,0
GPS BIIRM-3 (PRN 12),2006-052A,2026-06-03T22:57:15.490656,2.00557537,.0085368,54.9362,214.5309,90.7300,270.3341,0,U,29601,999,14314,0,.37E-6,0
GPS BIIRM-4 (PRN 15),2007-047A,2026-06-04T06:16:13.169856,2.00555957,.01662869,54.0860,80.5985,87.1331,274.7634,0,U,32260,999,13655,0,-.17E-6,0
COSMOS 2433 (720),2007-052A,2026-06-02T08:50:50.258400,2.13104318,.00019687,65.5855,316.4315,187.3207,172.6647,0,U,32275,999,14474,0,-.5E-6,0
COSMOS 2432 (719),2007-052B,2026-06-01T11:30:03.781152,2.13103259,.00079627,65.6026,316.5890,335.3326,6.2477,0,U,32276,999,14474,0,-.55E-6,0
GPS BIIRM-5 (PRN 29),2007-062A,2026-06-04T12:23:56.819040,2.00559423,.00354922,55.0422,274.6622,164.8221,146.7304,0,U,32384,999,13525,0,-.31E-6,0
COSMOS 2434 (721),2007-065A,2026-06-04T03:37:41.483712,2.13101482,.00010575,64.3170,192.3554,345.7165,191.6787,0,U,32393,999,14349,0,.66E-6,0
COSMOS 2436 (723),2007-065C,2026-06-05T05:47:27.768768,2.13100377,.00171629,64.3259,192.3911,354.7132,71.3509,0,U,32395,999,14347,0,.7E-6,0
GPS BIIRM-6 (PRN 07),2008-012A,2026-06-05T04:05:59.823456,2.00572164,.02110239,54.4957,150.4047,247.6931,110.0563,0,U,32711,999,13351,0,.79E-6,0
GPS BIIRM-8 (PRN 05),2009-043A,2026-06-03T09:46:38.739648,2.00555150,.00536574,56.2018,27.9930,82.6377,94.8092,0,U,35752,999,12308,0,-.76E-6,0
COSMOS 2456 (730),2009-070A,2026-06-05T08:20:58.742304,2.13103925,.0005032,65.0048,71.3753,326.3137,207.2482,0,U,36111,999,12817,0,-.11E-6,0
COSMOS 2457 (733),2009-070B,2026-06-05T04:39:04.414176,2.13101326,.00022567,64.9906,71.2245,128.5746,54.2823,0,U,36112,999,12817,0,-.12E-6,0
GPS BIIF-1  (PRN 25),2010-022A,2026-06-03T13:00:15.536736,2.00561832,.01263988,54.2714,209.1120,66.1333,326.5682,0,U,36585,999,11732,0,.43E-6,0
BEIDOU-2 IGSO-1 (C06),2010-036A,2026-06-04T22:37:57.995040,1.00276170,.0059008,54.3007,163.0699,224.9601,312.4811,0,U,36828,999,5797,0,-.61E-6,0
BEIDOU-2 G4 (C04),2010-057A,2026-06-05T04:00:37.895328,1.00272356,.00048197,3.6172,69.0187,203.4415,201.3150,0,U,37210,999,5717,0,-.1E-5,0
BEIDOU-2 IGSO-2 (C07),2010-068A,2026-06-02T17:12:31.818816,1.00288733,.0055435,47.5760,272.0122,212.8539,131.7633,0,U,37256,999,5664,0,-.206E-5,0
BEIDOU-2 IGSO-3 (C08),2011-013A,2026-06-04T15:13:36.073056,1.00271497,.00344466,62.3902,40.2715,185.4993,3.7397,0,U,37384,999,5553,0,-.179E-5,0
GSAT-8 (GAGAN/PRN 127),2011-022A,2026-06-05T03:30:48.255840,1.00272287,.00021931,2.0995,81.9707,219.7028,59.6936,0,U,37605,999,5309,0,.96E-6,0
GSAT0101 (GALILEO-PFM),2011-060A,2026-06-03T22:38:43.717056,1.70475864,.0003386,56.9986,342.1203,47.2042,312.8361,0,U,37846,999,9089,0,-.73E-6,0
GSAT0102 (GALILEO-FM2),2011-060B,2026-06-03T20:52:21.673920,1.70476132,.00035343,57.0019,342.1227,13.6110,346.7054,0,U,37847,999,9090,0,-.73E-6,0
COSMOS 2476 (744),2011-064A,2026-06-04T13:11:07.738368,2.13104008,.00230862,65.2634,73.2975,239.8731,309.4293,0,U,37867,999,11349,0,-.1E-6,0
COSMOS 2477 (745),2011-064B,2026-06-05T05:42:31.209408,2.13103220,.0020106,65.2703,73.3534,241.1638,296.6846,0,U,37868,999,11350,0,-.8E-7,0
COSMOS 2475 (743),2011-064C,2026-06-04T08:26:21.818688,2.13102038,.00260116,65.2767,73.4049,253.8995,279.2439,0,U,37869,999,11349,0,-.1E-6,0
